SIRION PATHFINDER-2     
1 43759U 18099B   26170.69233594  .00004059  00000+0  22350-3 0  9994
2 43759  97.4247 219.6903 0007157 293.9955  66.0528 15.14565833413001
CORVUS BC4              
1 43767U 18099K   26170.90077079  .00002997  00000+0  17563-3 0  9990
2 43767  97.4063 213.8018 0008017   4.0881 356.0414 15.12513050412810
M2 PATHFINDER           
1 45727U 20037E   26170.57390124  .00001202  00000+0  89866-4 0  9999
2 45727  97.8143   1.8325 0012507 139.3083 220.9080 15.04681666325857
NETSAT-4                
1 46504U 20068U   26170.58769639  .00014190  00000+0  31397-3 0  9994
2 46504  97.8605 179.0214 0003567 327.1442  32.9583 15.43929403316149
NETSAT-3                
1 46505U 20068V   26170.46608847  .00016430  00000+0  37774-3 0  9999
2 46505  97.8655 177.1036 0003888 352.2858   7.8328 15.42747216316037
NETSAT-1                
1 46506U 20068W   26170.48271503  .00010074  00000+0  30211-3 0  9994
2 46506  97.8748 171.4257 0004781  25.4867 334.6610 15.34687263315653
NETSAT-2                
1 46507U 20068X   26170.55970238  .00019174  00000+0  39346-3 0  9992
2 46507  97.8616 178.8939 0003148  19.0109 341.1256 15.46083868316104
GREENCUBE (IO-117)      
1 53109U 22080E   26170.67448082 -.00000003  00000+0  00000+0 0  9997
2 53109  70.1442 297.3799 0008827 289.0639  70.9064  6.42583159 92220
SITRO-AIS 5 (KATYS)     
1 57176U 23091L   26170.94862909  .00010039  00000+0  35273-3 0  9999
2 57176  97.5055 234.8746 0012715  94.9331 265.3361 15.29509306164768
SITRO-AIS 6 (CHIRKIN)   
1 57192U 23091AC  26170.93395418  .00008379  00000+0  32812-3 0  9992
2 57192  97.5062 233.9642 0013092  98.0849 262.1875 15.25977127164702
SITRO-AIS 8 (ANOKHIN)   
1 57193U 23091AD  26170.89551208  .00011999  00000+0  38756-3 0  9994
2 57193  97.5051 236.4207 0011734  91.7244 268.5341 15.32198737164861
SITRO-AIS 7 (FARTUSHNIY)
1 57194U 23091AE  26170.93766464  .00008078  00000+0  31945-3 0  9999
2 57194  97.5059 233.7915 0012947  99.0103 261.2601 15.25664309164693
SITRO-AIS 10 (BURDAEV)  
1 57199U 23091AK  26170.91564695  .00016633  00000+0  43642-3 0  9997
2 57199  97.5076 241.5233 0007312  72.1725 288.0317 15.38698938165184
SITRO-AIS 9 (SHCHUKIN)  
1 57201U 23091AM  26170.94292032  .00016732  00000+0  44604-3 0  9996
2 57201  97.5074 241.2791 0007586  72.3569 287.8504 15.38205091165171
SITRO-AIS 12 (SMIRENNIY)
1 57204U 23091AQ  26170.93301689  .00016741  00000+0  44213-3 0  9993
2 57204  97.5087 241.7378 0007088  67.2579 292.9414 15.38498482165192
SITRO-AIS 11 (SHEFFER)  
1 57208U 23091AU  26170.94567306  .00017085  00000+0  44496-3 0  9993
2 57208  97.5085 241.9991 0006999  67.2672 292.9312 15.38924875165211
SITRO-AIS 25            
1 59066U 24039R   26170.92211586  .00002176  00000+0  17171-3 0  9999
2 59066  95.3912 236.9720 0143186 319.1139  39.9414 14.93524962125133
SITRO-AIS 26            
1 59067U 24039S   26170.92386174  .00002093  00000+0  16605-3 0  9995
2 59067  95.3909 236.8703 0143541 319.6993  39.3661 14.93320500125127
SITRO-AIS 27            
1 59068U 24039T   26170.96032529  .00001784  00000+0  14072-3 0  9994
2 59068  95.3913 237.1683 0142574 318.1693  40.8704 14.93740595125158
SITRO-AIS 28            
1 59071U 24039U   26170.93770810  .00002109  00000+0  16576-3 0  9990
2 59071  95.3912 237.2002 0142450 318.0793  40.9594 14.93774993125157
GRBBETA                 
1 60237U 24128C   26170.54292137  .00002191  00000+0  15906-3 0  9990
2 60237  61.9881 208.0011 0040352 135.1213 225.3155 15.06650427106629
OOV-CUBE (TUBSAT-30)    
1 60240U 24128F   26170.58394809  .00001296  00000+0  11023-3 0  9998
2 60240  61.9930 217.2156 0044338 134.2886 226.1856 15.02780984106472
ROBUSTA-3A (MEDITERRAN*)
1 60243U 24128J   26170.38384092  .00004256  00000+0  25697-3 0  9993
2 60243  61.9845 200.4756 0041136 128.3668 232.1135 15.11694010106757
LASARSAT                
1 62391U 24247Q   26170.49548139  .00028780  00000+0  57166-3 0  9991
2 62391  44.9733 249.2437 0007938 344.7299  15.3350 15.46491567 83678
CROCUBE                 
1 62394U 24247T   26170.49048578  .00032668  00000+0  60622-3 0  9997
2 62394  44.9701 246.5654 0007740 349.0739  10.9982 15.48397693 83708
FORESAIL-1 PRIME        
1 66778U 25276DS  26170.43439938  .00004058  00000+0  19871-3 0  9990
2 66778  97.4197 243.6644 0003961  98.6161 261.5522 15.18719306 30740
KNACKSAT-2              
1 67683U 98067XZ  26170.59247606  .00040473  00000+0  49084-3 0  9990
2 67683  51.6307 282.3774 0008934 225.7617 134.2643 15.60167582 20658
